start=new Date('2022-04-07T00:00:00.000Z').valueOf();
sats=[{"MEAN_MOTION_DOT":"0.00007829","RCS_SIZE":"LARGE","SITE":"AFETR","EPHEMERIS_TYPE":"0","MEAN_ELEMENT_THEORY":"SGP4","CENTER_NAME":"EARTH","LAUNCH_DATE":"2021-03-11","ELEMENT_SET_NO":"999","TLE_LINE2":"2 47841  53.0533 184.4999 0001506  76.7108 283.4048 15.06398544 60897","BSTAR":"0.00054393000000","REF_FRAME":"TEME","NORAD_CAT_ID":"47841","REV_AT_EPOCH":"6089","GP_ID":"200624770","MEAN_MOTION":"15.06398544","DECAY_DATE":null,"COUNTRY_CODE":"US","SEMIMAJOR_AXIS":"6925.353","OBJECT_TYPE":"PAYLOAD","EPOCH":"2022-04-06T17:06:13.627008","MEAN_MOTION_DDOT":"0.0000000000000","ARG_OF_PERICENTER":"76.7108","FILE":"3391320","CLASSIFICATION_TYPE":"U","OBJECT_ID":"2021-018BG","INCLINATION":"53.0533","PERIAPSIS":"546.175","MEAN_ANOMALY":"283.4048","RA_OF_ASC_NODE":"184.4999","TLE_LINE1":"1 47841U 21018BG  22096.71265772  .00007829  00000-0  54393-3 0  9995","TIME_SYSTEM":"UTC","PERIOD":"95.592","APOAPSIS":"548.261","ECCENTRICITY":"0.00015060","OBJECT_NAME":"STARLINK-2433"},{"NORAD_CAT_ID":"47842","REF_FRAME":"TEME","BSTAR":"0.00001489900000","TLE_LINE2":"2 47842  53.0529 213.9703 0001576  61.2476 298.8671 15.06393165 60546","ELEMENT_SET_NO":"999","LAUNCH_DATE":"2021-03-11","CENTER_NAME":"EARTH","MEAN_ELEMENT_THEORY":"SGP4","EPHEMERIS_TYPE":"0","SITE":"AFETR","RCS_SIZE":"LARGE","MEAN_MOTION_DOT":"-0.00000060","SEMIMAJOR_AXIS":"6925.370","COUNTRY_CODE":"US","DECAY_DATE":null,"MEAN_MOTION":"15.06393165","GP_ID":"200625022","REV_AT_EPOCH":"6054","RA_OF_ASC_NODE":"213.9703","PERIAPSIS":"546.143","MEAN_ANOMALY":"298.8671","INCLINATION":"53.0529","OBJECT_ID":"2021-018BH","CLASSIFICATION_TYPE":"U","FILE":"3391320","ARG_OF_PERICENTER":"61.2476","MEAN_MOTION_DDOT":"0.0000000000000","EPOCH":"2022-04-06T19:57:24.454656","OBJECT_TYPE":"PAYLOAD","OBJECT_NAME":"STARLINK-2434","ECCENTRICITY":"0.00015760","APOAPSIS":"548.326","PERIOD":"95.593","TIME_SYSTEM":"UTC","TLE_LINE1":"1 47842U 21018BH  22096.83153304 -.00000060  00000-0  14899-4 0  9995"},{"TLE_LINE1":"1 47843U 21018BJ  22096.80435571  .00019354  00000-0  13153-2 0  9997","TIME_SYSTEM":"UTC","APOAPSIS":"548.528","PERIOD":"95.593","ECCENTRICITY":"0.00018170","OBJECT_NAME":"STARLINK-2435","EPOCH":"2022-04-06T19:18:16.333344","OBJECT_TYPE":"PAYLOAD","ARG_OF_PERICENTER":"40.1459","MEAN_MOTION_DDOT":"0.0000000000000","CLASSIFICATION_TYPE":"U","FILE":"3391320","OBJECT_ID":"2021-018BJ","INCLINATION":"53.0527","RA_OF_ASC_NODE":"209.1025","MEAN_ANOMALY":"319.9663","PERIAPSIS":"546.012","REV_AT_EPOCH":"6057","GP_ID":"200625772","MEAN_MOTION":"15.06381546","DECAY_DATE":null,"COUNTRY_CODE":"US","SEMIMAJOR_AXIS":"6925.405","MEAN_MOTION_DOT":"0.00019354","RCS_SIZE":"LARGE","MEAN_ELEMENT_THEORY":"SGP4","SITE":"AFETR","EPHEMERIS_TYPE":"0","LAUNCH_DATE":"2021-03-11","CENTER_NAME":"EARTH","TLE_LINE2":"2 47843  53.0527 209.1025 0001817  40.1459 319.9663 15.06381546 60573","ELEMENT_SET_NO":"999","BSTAR":"0.00131530000000","NORAD_CAT_ID":"47843","REF_FRAME":"TEME"},{"DECAY_DATE":null,"COUNTRY_CODE":"US","SEMIMAJOR_AXIS":"6925.411","REV_AT_EPOCH":"6061","GP_ID":"200624520","MEAN_MOTION":"15.06379547","LAUNCH_DATE":"2021-03-11","CENTER_NAME":"EARTH","TLE_LINE2":"2 47844  53.0544 204.4034 0001634  62.1840 297.9315 15.06379547 60618","ELEMENT_SET_NO":"999","BSTAR":"-0.00006565100000","REF_FRAME":"TEME","NORAD_CAT_ID":"47844","MEAN_MOTION_DOT":"-0.00001259","RCS_SIZE":"LARGE","MEAN_ELEMENT_THEORY":"SGP4","EPHEMERIS_TYPE":"0","SITE":"AFETR","ECCENTRICITY":"0.00016340","OBJECT_NAME":"STARLINK-2446","TLE_LINE1":"1 47844U 21018BK  22096.73662780 -.00001259  00000-0 -65651-4 0  9993","TIME_SYSTEM":"UTC","APOAPSIS":"548.408","PERIOD":"95.593","FILE":"3391320","CLASSIFICATION_TYPE":"U","OBJECT_ID":"2021-018BK","INCLINATION":"53.0544","RA_OF_ASC_NODE":"204.4034","PERIAPSIS":"546.145","MEAN_ANOMALY":"297.9315","EPOCH":"2022-04-06T17:40:44.641920","OBJECT_TYPE":"PAYLOAD","MEAN_MOTION_DDOT":"0.0000000000000","ARG_OF_PERICENTER":"62.1840"},{"BSTAR":"0.00003890800000","REF_FRAME":"TEME","NORAD_CAT_ID":"47845","CENTER_NAME":"EARTH","LAUNCH_DATE":"2021-03-11","ELEMENT_SET_NO":"999","TLE_LINE2":"2 47845  53.0548 204.3226 0002142  46.3570 313.7596 15.06394497 60624","RCS_SIZE":"LARGE","EPHEMERIS_TYPE":"0","SITE":"AFETR","MEAN_ELEMENT_THEORY":"SGP4","MEAN_MOTION_DOT":"0.00000298","SEMIMAJOR_AXIS":"6925.365","DECAY_DATE":null,"COUNTRY_CODE":"US","MEAN_MOTION":"15.06394497","REV_AT_EPOCH":"6062","GP_ID":"200624271","INCLINATION":"53.0548","PERIAPSIS":"545.747","MEAN_ANOMALY":"313.7596","RA_OF_ASC_NODE":"204.3226","CLASSIFICATION_TYPE":"U","FILE":"3391320","OBJECT_ID":"2021-018BL","ARG_OF_PERICENTER":"46.3570","MEAN_MOTION_DDOT":"0.0000000000000","OBJECT_TYPE":"PAYLOAD","EPOCH":"2022-04-06T18:07:15.913920","ECCENTRICITY":"0.00021420","OBJECT_NAME":"STARLINK-2453","TIME_SYSTEM":"UTC","PERIOD":"95.592","APOAPSIS":"548.714","TLE_LINE1":"1 47845U 21018BL  22096.75504530  .00000298  00000-0  38908-4 0  9999"},{"OBJECT_NAME":"STARLINK-2456","ECCENTRICITY":"0.00013010","APOAPSIS":"548.166","PERIOD":"95.593","TIME_SYSTEM":"UTC","TLE_LINE1":"1 47846U 21018BM  22096.61867174 -.00004317  00000-0 -27125-3 0  9997","RA_OF_ASC_NODE":"204.9314","PERIAPSIS":"546.364","MEAN_ANOMALY":"303.2199","INCLINATION":"53.0537","OBJECT_ID":"2021-018BM","FILE":"3390907","CLASSIFICATION_TYPE":"U","MEAN_MOTION_DDOT":"0.0000000000000","ARG_OF_PERICENTER":"56.8915","EPOCH":"2022-04-06T14:50:53.238336","OBJECT_TYPE":"PAYLOAD","SEMIMAJOR_AXIS":"6925.400","COUNTRY_CODE":"US","DECAY_DATE":null,"MEAN_MOTION":"15.06383356","GP_ID":"200591279","REV_AT_EPOCH":"6065","NORAD_CAT_ID":"47846","REF_FRAME":"TEME","BSTAR":"-0.00027125000000","TLE_LINE2":"2 47846  53.0537 204.9314 0001301  56.8915 303.2199 15.06383356 60650","ELEMENT_SET_NO":"999","LAUNCH_DATE":"2021-03-11","CENTER_NAME":"EARTH","MEAN_ELEMENT_THEORY":"SGP4","SITE":"AFETR","EPHEMERIS_TYPE":"0","RCS_SIZE":"LARGE","MEAN_MOTION_DOT":"-0.00004317"},{"SEMIMAJOR_AXIS":"6925.366","COUNTRY_CODE":"US","DECAY_DATE":null,"MEAN_MOTION":"15.06394276","GP_ID":"200624022","REV_AT_EPOCH":"5997","NORAD_CAT_ID":"47860","REF_FRAME":"TEME","BSTAR":"0.00001909800000","TLE_LINE2":"2 47860  53.0529 234.3157 0001688  56.3003 303.8147 15.06394276 59975","ELEMENT_SET_NO":"999","LAUNCH_DATE":"2021-03-14","CENTER_NAME":"EARTH","MEAN_ELEMENT_THEORY":"SGP4","EPHEMERIS_TYPE":"0","SITE":"AFETR","RCS_SIZE":"LARGE","MEAN_MOTION_DOT":"0.00000003","OBJECT_NAME":"STARLINK-2258","ECCENTRICITY":"0.00016880","APOAPSIS":"548.400","PERIOD":"95.593","TIME_SYSTEM":"UTC","TLE_LINE1":"1 47860U 21021A   22096.75596919  .00000003  00000-0  19098-4 0  9995","RA_OF_ASC_NODE":"234.3157","PERIAPSIS":"546.062","MEAN_ANOMALY":"303.8147","INCLINATION":"53.0529","OBJECT_ID":"2021-021A","CLASSIFICATION_TYPE":"U","FILE":"3391320","MEAN_MOTION_DDOT":"0.0000000000000","ARG_OF_PERICENTER":"56.3003","EPOCH":"2022-04-06T18:08:35.738016","OBJECT_TYPE":"PAYLOAD"},{"OBJECT_NAME":"STARLINK-2280","ECCENTRICITY":"0.00013640","APOAPSIS":"548.152","PERIOD":"95.592","TIME_SYSTEM":"UTC","TLE_LINE1":"1 47861U 21021B   22096.70758853  .00003070  00000-0  22490-3 0  9994","RA_OF_ASC_NODE":"219.5319","MEAN_ANOMALY":"296.8177","PERIAPSIS":"546.262","INCLINATION":"53.0514","OBJECT_ID":"2021-021B","FILE":"3391320","CLASSIFICATION_TYPE":"U","ARG_OF_PERICENTER":"63.2952","MEAN_MOTION_DDOT":"0.0000000000000","EPOCH":"2022-04-06T16:58:55.648992","OBJECT_TYPE":"PAYLOAD","SEMIMAJOR_AXIS":"6925.342","COUNTRY_CODE":"US","DECAY_DATE":null,"MEAN_MOTION":"15.06402154","GP_ID":"200624772","REV_AT_EPOCH":"6028","NORAD_CAT_ID":"47861","REF_FRAME":"TEME","BSTAR":"0.00022490000000","TLE_LINE2":"2 47861  53.0514 219.5319 0001364  63.2952 296.8177 15.06402154 60281","ELEMENT_SET_NO":"999","LAUNCH_DATE":"2021-03-14","CENTER_NAME":"EARTH","MEAN_ELEMENT_THEORY":"SGP4","EPHEMERIS_TYPE":"0","SITE":"AFETR","RCS_SIZE":"LARGE","MEAN_MOTION_DOT":"0.00003070"},{"TLE_LINE1":"1 47862U 21021C   22096.75412623  .00004339  00000-0  31006-3 0  9994","APOAPSIS":"548.370","PERIOD":"95.592","TIME_SYSTEM":"UTC","OBJECT_NAME":"STARLINK-2291","ECCENTRICITY":"0.00016520","EPOCH":"2022-04-06T18:05:56.506272","OBJECT_TYPE":"PAYLOAD","ARG_OF_PERICENTER":"84.0570","MEAN_MOTION_DDOT":"0.0000000000000","OBJECT_ID":"2021-021C","FILE":"3391320","CLASSIFICATION_TYPE":"U","RA_OF_ASC_NODE":"214.3263","PERIAPSIS":"546.081","MEAN_ANOMALY":"276.0608","INCLINATION":"53.0546","GP_ID":"200625024","REV_AT_EPOCH":"6035","MEAN_MOTION":"15.06396086","COUNTRY_CODE":"US","DECAY_DATE":null,"SEMIMAJOR_AXIS":"6925.361","MEAN_MOTION_DOT":"0.00004339","MEAN_ELEMENT_THEORY":"SGP4","SITE":"AFETR","EPHEMERIS_TYPE":"0","RCS_SIZE":"LARGE","TLE_LINE2":"2 47862  53.0546 214.3263 0001652  84.0570 276.0608 15.06396086 60358","ELEMENT_SET_NO":"999","LAUNCH_DATE":"2021-03-14","CENTER_NAME":"EARTH","NORAD_CAT_ID":"47862","REF_FRAME":"TEME","BSTAR":"0.00031006000000"},{"MEAN_MOTION_DOT":"-0.00003056","RCS_SIZE":"LARGE","SITE":"AFETR","EPHEMERIS_TYPE":"0","MEAN_ELEMENT_THEORY":"SGP4","CENTER_NAME":"EARTH","LAUNCH_DATE":"2021-03-14","ELEMENT_SET_NO":"999","TLE_LINE2":"2 47863  53.0545 225.1058 0001281  79.8491 280.2642 15.06389179 60194","BSTAR":"-0.00018642000000","NORAD_CAT_ID":"47863","REF_FRAME":"TEME","REV_AT_EPOCH":"6019","GP_ID":"200590529","MEAN_MOTION":"15.06389179","DECAY_DATE":null,"COUNTRY_CODE":"US","SEMIMAJOR_AXIS":"6925.382","OBJECT_TYPE":"PAYLOAD","EPOCH":"2022-04-06T13:55:08.790240","MEAN_MOTION_DDOT":"0.0000000000000","ARG_OF_PERICENTER":"79.8491","FILE":"3390907","CLASSIFICATION_TYPE":"U","OBJECT_ID":"2021-021D","INCLINATION":"53.0545","MEAN_ANOMALY":"280.2642","PERIAPSIS":"546.360","RA_OF_ASC_NODE":"225.1058","TLE_LINE1":"1 47863U 21021D   22096.57996285 -.00003056  00000-0 -18642-3 0  9994","TIME_SYSTEM":"UTC","PERIOD":"95.593","APOAPSIS":"548.134","ECCENTRICITY":"0.00012810","OBJECT_NAME":"STARLINK-2293"}];
